[{"spaceTrack":{"CCSDS_OMM_VERS":"2.0","COMMENT":"GENERATED VIA SPACE-TRACK.ORG API","CREATION_DATE":"2021-10-26T14:36:12","ORIGINATOR":"18 SPCS","OBJECT_NAME":"STARLINK-2465","OBJECT_ID":"2021-027AJ","CENTER_NAME":"EARTH","REF_FRAME":"TEME","TIME_SYSTEM":"UTC","MEAN_ELEMENT_THEORY":"SGP4","EPOCH":"2021-10-26T04:56:42.566208","MEAN_MOTION":15.06394724,"ECCENTRICITY":0.0001815,"INCLINATION":53.0554,"RA_OF_ASC_NODE":124.0224,"ARG_OF_PERICENTER":83.1352,"MEAN_ANOMALY":276.9844,"EPHEMERIS_TYPE":0,"CLASSIFICATION_TYPE":"U","NORAD_CAT_ID":48124,"ELEMENT_SET_NO":999,"REV_AT_EPOCH":3168,"BSTAR":-0.00004246,"MEAN_MOTION_DOT":-0.00000914,"MEAN_MOTION_DDOT":0,"SEMIMAJOR_AXIS":6925.365,"PERIOD":95.592,"APOAPSIS":548.487,"PERIAPSIS":545.973,"OBJECT_TYPE":"PAYLOAD","RCS_SIZE":"LARGE","COUNTRY_CODE":"US","LAUNCH_DATE":"2021-04-07","SITE":"AFETR","DECAY_DATE":null,"DECAYED":0,"FILE":3184644,"GP_ID":188171004,"TLE_LINE0":"0 STARLINK-2465","TLE_LINE1":"1 48124U 21027AJ  21299.20604822 -.00000914  00000-0 -42460-4 0  9994","TLE_LINE2":"2 48124  53.0554 124.0224 0001815  83.1352 276.9844 15.06394724 31684"},"height_km":564.5283802495715,"latitude":-47.192471746405936,"launch":"60428ac4c041c16716f73cd8","longitude":86.83367399073218,"velocity_kms":7.5781103511222705,"version":"v1.0","id":"607735eab8f62f00065af50f"},{"spaceTrack":{"CCSDS_OMM_VERS":"2.0","COMMENT":"GENERATED VIA SPACE-TRACK.ORG API","CREATION_DATE":"2021-10-26T06:46:11","ORIGINATOR":"18 SPCS","OBJECT_NAME":"STARLINK-2474","OBJECT_ID":"2021-027AS","CENTER_NAME":"EARTH","REF_FRAME":"TEME","TIME_SYSTEM":"UTC","MEAN_ELEMENT_THEORY":"SGP4","EPOCH":"2021-10-25T22:43:51.133440","MEAN_MOTION":15.0639873,"ECCENTRICITY":0.0001755,"INCLINATION":53.0554,"RA_OF_ASC_NODE":135.1817,"ARG_OF_PERICENTER":79.7333,"MEAN_ANOMALY":280.3854,"EPHEMERIS_TYPE":0,"CLASSIFICATION_TYPE":"U","NORAD_CAT_ID":48132,"ELEMENT_SET_NO":999,"REV_AT_EPOCH":3150,"BSTAR":0.000045438,"MEAN_MOTION_DOT":0.00000395,"MEAN_MOTION_DDOT":0,"SEMIMAJOR_AXIS":6925.352,"PERIOD":95.592,"APOAPSIS":548.433,"PERIAPSIS":546.002,"OBJECT_TYPE":"PAYLOAD","RCS_SIZE":"LARGE","COUNTRY_CODE":"US","LAUNCH_DATE":"2021-04-07","SITE":"AFETR","DECAY_DATE":null,"DECAYED":0,"FILE":3184104,"GP_ID":188160268,"TLE_LINE0":"0 STARLINK-2474","TLE_LINE1":"1 48132U 21027AS  21298.94711960  .00000395  00000-0  45438-4 0  9994","TLE_LINE2":"2 48132  53.0554 135.1817 0001755  79.7333 280.3854 15.06398730 31509"},"height_km":555.1107015773941,"latitude":-24.663672225377844,"launch":"60428ac4c041c16716f73cd8","longitude":63.06614875606958,"velocity_kms":7.583697467006265,"version":"v1.0","id":"607735eab8f62f00065af511"},{"spaceTrack":{"CCSDS_OMM_VERS":"2.0","COMMENT":"GENERATED VIA SPACE-TRACK.ORG API","CREATION_DATE":"2021-10-26T06:36:12","ORIGINATOR":"18 SPCS","OBJECT_NAME":"STARLINK-2440","OBJECT_ID":"2021-027P","CENTER_NAME":"EARTH","REF_FRAME":"TEME","TIME_SYSTEM":"UTC","MEAN_ELEMENT_THEORY":"SGP4","EPOCH":"2021-10-25T21:59:23.347680","MEAN_MOTION":15.18964344,"ECCENTRICITY":0.0001406,"INCLINATION":53.0434,"RA_OF_ASC_NODE":65.4936,"ARG_OF_PERICENTER":83.1672,"MEAN_ANOMALY":276.9482,"EPHEMERIS_TYPE":0,"CLASSIFICATION_TYPE":"U","NORAD_CAT_ID":48105,"ELEMENT_SET_NO":999,"REV_AT_EPOCH":3247,"BSTAR":-0.013129,"MEAN_MOTION_DOT":-0.00268184,"MEAN_MOTION_DDOT":0,"SEMIMAJOR_AXIS":6887.106,"PERIOD":94.801,"APOAPSIS":509.94,"PERIAPSIS":508.003,"OBJECT_TYPE":"PAYLOAD","RCS_SIZE":"LARGE","COUNTRY_CODE":"US","LAUNCH_DATE":"2021-04-07","SITE":"AFETR","DECAY_DATE":null,"DECAYED":0,"FILE":3183995,"GP_ID":188157807,"TLE_LINE0":"0 STARLINK-2440","TLE_LINE1":"1 48105U 21027P   21298.91624245 -.00268184  00000-0 -13129-1 0  9993","TLE_LINE2":"2 48105  53.0434  65.4936 0001406  83.1672 276.9482 15.18964344 32479"},"height_km":512.7140458611511,"latitude":38.8143254522387,"launch":"60428ac4c041c16716f73cd8","longitude":-169.90918138966646,"velocity_kms":7.612829289965055,"version":"v1.0","id":"607735eab8f62f00065af510"},{"spaceTrack":{"CCSDS_OMM_VERS":"2.0","COMMENT":"GENERATED VIA SPACE-TRACK.ORG API","CREATION_DATE":"2021-10-25T22:26:12","ORIGINATOR":"18 SPCS","OBJECT_NAME":"STARLINK-2449","OBJECT_ID":"2021-027W","CENTER_NAME":"EARTH","REF_FRAME":"TEME","TIME_SYSTEM":"UTC","MEAN_ELEMENT_THEORY":"SGP4","EPOCH":"2021-10-25T13:32:29.024448","MEAN_MOTION":15.06391412,"ECCENTRICITY":0.000166,"INCLINATION":53.0571,"RA_OF_ASC_NODE":141.9075,"ARG_OF_PERICENTER":72.7918,"MEAN_ANOMALY":287.3253,"EPHEMERIS_TYPE":0,"CLASSIFICATION_TYPE":"U","NORAD_CAT_ID":48112,"ELEMENT_SET_NO":999,"REV_AT_EPOCH":3137,"BSTAR":0.000077397,"MEAN_MOTION_DOT":0.00000871,"MEAN_MOTION_DDOT":0,"SEMIMAJOR_AXIS":6925.375,"PERIOD":95.593,"APOAPSIS":548.389,"PERIAPSIS":546.09,"OBJECT_TYPE":"PAYLOAD","RCS_SIZE":"LARGE","COUNTRY_CODE":"US","LAUNCH_DATE":"2021-04-07","SITE":"AFETR","DECAY_DATE":null,"DECAYED":0,"FILE":3183568,"GP_ID":188147967,"TLE_LINE0":"0 STARLINK-2449","TLE_LINE1":"1 48112U 21027W   21298.56422482  .00000871  00000-0  77397-4 0  9996","TLE_LINE2":"2 48112  53.0571 141.9075 0001660  72.7918 287.3253 15.06391412 31379"},"height_km":549.8395108009327,"latitude":38.625842355447894,"launch":"60428ac4c041c16716f73cd8","longitude":11.287447513924882,"velocity_kms":7.592276771482897,"version":"v1.0","id":"607735eab8f62f00065af51f"},{"spaceTrack":{"CCSDS_OMM_VERS":"2.0","COMMENT":"GENERATED VIA SPACE-TRACK.ORG API","CREATION_DATE":"2021-10-25T18:30:04","ORIGINATOR":"18 SPCS","OBJECT_NAME":"STARLINK-2475","OBJECT_ID":"2021-027AT","CENTER_NAME":"EARTH","REF_FRAME":"TEME","TIME_SYSTEM":"UTC","MEAN_ELEMENT_THEORY":"SGP4","EPOCH":"2021-10-25T01:56:30.770880","MEAN_MOTION":15.06396986,"ECCENTRICITY":0.0001741,"INCLINATION":53.0554,"RA_OF_ASC_NODE":139.0701,"ARG_OF_PERICENTER":80.2093,"MEAN_ANOMALY":279.9092,"EPHEMERIS_TYPE":0,"CLASSIFICATION_TYPE":"U","NORAD_CAT_ID":48133,"ELEMENT_SET_NO":999,"REV_AT_EPOCH":3177,"BSTAR":-0.000014129,"MEAN_MOTION_DOT":-0.00000492,"MEAN_MOTION_DDOT":0,"SEMIMAJOR_AXIS":6925.358,"PERIOD":95.592,"APOAPSIS":548.429,"PERIAPSIS":546.017,"OBJECT_TYPE":"PAYLOAD","RCS_SIZE":"LARGE","COUNTRY_CODE":"US","LAUNCH_DATE":"2021-04-07","SITE":"AFETR","DECAY_DATE":null,"DECAYED":0,"FILE":3183453,"GP_ID":188144386,"TLE_LINE0":"0 STARLINK-2475","TLE_LINE1":"1 48133U 21027AT  21298.08091170 -.00000492  00000-0 -14129-4 0  9997","TLE_LINE2":"2 48133  53.0554 139.0701 0001741  80.2093 279.9092 15.06396986 31778"},"height_km":560.8701648182105,"latitude":-38.7743091551955,"launch":"60428ac4c041c16716f73cd8","longitude":79.90621004625183,"velocity_kms":7.580219066842142,"version":"v1.0","id":"607735eab8f62f00065af51d"},{"spaceTrack":{"CCSDS_OMM_VERS":"2.0","COMMENT":"GENERATED VIA SPACE-TRACK.ORG API","CREATION_DATE":"2021-10-25T18:30:04","ORIGINATOR":"18 SPCS","OBJECT_NAME":"STARLINK-2454","OBJECT_ID":"2021-027AA","CENTER_NAME":"EARTH","REF_FRAME":"TEME","TIME_SYSTEM":"UTC","MEAN_ELEMENT_THEORY":"SGP4","EPOCH":"2021-10-25T01:08:44.336832","MEAN_MOTION":15.0639159,"ECCENTRICITY":0.0001748,"INCLINATION":53.0566,"RA_OF_ASC_NODE":139.2304,"ARG_OF_PERICENTER":77.9258,"MEAN_ANOMALY":282.1927,"EPHEMERIS_TYPE":0,"CLASSIFICATION_TYPE":"U","NORAD_CAT_ID":48116,"ELEMENT_SET_NO":999,"REV_AT_EPOCH":3176,"BSTAR":-0.00004515,"MEAN_MOTION_DOT":-0.00000954,"MEAN_MOTION_DDOT":0,"SEMIMAJOR_AXIS":6925.374,"PERIOD":95.593,"APOAPSIS":548.45,"PERIAPSIS":546.029,"OBJECT_TYPE":"PAYLOAD","RCS_SIZE":"LARGE","COUNTRY_CODE":"US","LAUNCH_DATE":"2021-04-07","SITE":"AFETR","DECAY_DATE":null,"DECAYED":0,"FILE":3183453,"GP_ID":188143632,"TLE_LINE0":"0 STARLINK-2454","TLE_LINE1":"1 48116U 21027AA  21298.04773538 -.00000954  00000-0 -45150-4 0  9990","TLE_LINE2":"2 48116  53.0566 139.2304 0001748  77.9258 282.1927 15.06391590 31764"},"height_km":549.5319529155431,"latitude":38.704312579161595,"launch":"60428ac4c041c16716f73cd8","longitude":-100.19572084047583,"velocity_kms":7.592638735204855,"version":"v1.0","id":"607735eab8f62f00065af526"},{"spaceTrack":{"CCSDS_OMM_VERS":"2.0","COMMENT":"GENERATED VIA SPACE-TRACK.ORG API","CREATION_DATE":"2021-10-26T14:46:11","ORIGINATOR":"18 SPCS","OBJECT_NAME":"STARLINK-2492","OBJECT_ID":"2021-027BK","CENTER_NAME":"EARTH","REF_FRAME":"TEME","TIME_SYSTEM":"UTC","MEAN_ELEMENT_THEORY":"SGP4","EPOCH":"2021-10-26T04:20:53.154528","MEAN_MOTION":15.06404904,"ECCENTRICITY":0.0001584,"INCLINATION":53.0496,"RA_OF_ASC_NODE":114.1464,"ARG_OF_PERICENTER":78.8808,"MEAN_ANOMALY":281.2358,"EPHEMERIS_TYPE":0,"CLASSIFICATION_TYPE":"U","NORAD_CAT_ID":48149,"ELEMENT_SET_NO":999,"REV_AT_EPOCH":3181,"BSTAR":-0.000054759,"MEAN_MOTION_DOT":-0.00001097,"MEAN_MOTION_DDOT":0,"SEMIMAJOR_AXIS":6925.334,"PERIOD":95.592,"APOAPSIS":548.296,"PERIAPSIS":546.102,"OBJECT_TYPE":"PAYLOAD","RCS_SIZE":"LARGE","COUNTRY_CODE":"US","LAUNCH_DATE":"2021-04-07","SITE":"AFETR","DECAY_DATE":null,"DECAYED":0,"FILE":3184733,"GP_ID":188173164,"TLE_LINE0":"0 STARLINK-2492","TLE_LINE1":"1 48149U 21027BK  21299.18117077 -.00001097  00000-0 -54759-4 0  9996","TLE_LINE2":"2 48149  53.0496 114.1464 0001584  78.8808 281.2358 15.06404904 31818"},"height_km":546.8808674634138,"latitude":16.814871265975494,"launch":"60428ac4c041c16716f73cd8","longitude":-143.93668918023639,"velocity_kms":7.591538296902865,"version":"v1.0","id":"607735eab8f62f00065af524"}]